start=new Date('2022-07-15T00:00:00.000Z').valueOf();
sats=[{"OBJECT_TYPE":"PAYLOAD","TLE_LINE1":"1 52280U 22041V   22195.91667824  .00022941  00000-0  14554-2 0  9997","CENTER_NAME":"EARTH","EPHEMERIS_TYPE":"0","REF_FRAME":"TEME","OBJECT_ID":"2022-041V","EPOCH":"2022-07-14T22:00:00.999936","APOAPSIS":"541.039","MEAN_MOTION":"15.08824932","ELEMENT_SET_NO":"999","TLE_LINE2":"2 52280  53.2201 336.6524 0001804  43.3919 337.3607 15.08824932  1308","CLASSIFICATION_TYPE":"U","REV_AT_EPOCH":"130","MEAN_MOTION_DOT":"0.00022941","PERIAPSIS":"538.543","INCLINATION":"53.2201","OBJECT_NAME":"STARLINK-3764","SEMIMAJOR_AXIS":"6917.926","MEAN_MOTION_DDOT":"0.0000000000000","RCS_SIZE":"LARGE","COUNTRY_CODE":"US","GP_ID":"208137855","ARG_OF_PERICENTER":"43.3919","FILE":"3513976","MEAN_ELEMENT_THEORY":"SGP4","SITE":"AFETR","NORAD_CAT_ID":"52280","PERIOD":"95.439","MEAN_ANOMALY":"337.3607","DECAY_DATE":null,"TIME_SYSTEM":"UTC","LAUNCH_DATE":"2022-04-21","BSTAR":"0.00145540000000","ECCENTRICITY":"0.00018040","RA_OF_ASC_NODE":"336.6524"},{"BSTAR":"0.00140970000000","LAUNCH_DATE":"2022-04-21","TIME_SYSTEM":"UTC","RA_OF_ASC_NODE":"336.6457","ECCENTRICITY":"0.00018400","NORAD_CAT_ID":"52281","SITE":"AFETR","MEAN_ELEMENT_THEORY":"SGP4","PERIOD":"95.439","FILE":"3513976","ARG_OF_PERICENTER":"39.6910","DECAY_DATE":null,"MEAN_ANOMALY":"255.9106","SEMIMAJOR_AXIS":"6917.955","INCLINATION":"53.2171","PERIAPSIS":"538.547","OBJECT_NAME":"STARLINK-3779","MEAN_MOTION_DOT":"0.00022204","GP_ID":"208137388","COUNTRY_CODE":"US","RCS_SIZE":"LARGE","MEAN_MOTION_DDOT":"0.0000000000000","EPOCH":"2022-07-14T22:00:00.999936","OBJECT_ID":"2022-041W","REF_FRAME":"TEME","OBJECT_TYPE":"PAYLOAD","EPHEMERIS_TYPE":"0","TLE_LINE1":"1 52281U 22041W   22195.91667824  .00022204  00000-0  14097-2 0  9992","CENTER_NAME":"EARTH","REV_AT_EPOCH":"130","MEAN_MOTION":"15.08815509","ELEMENT_SET_NO":"999","TLE_LINE2":"2 52281  53.2171 336.6457 0001840  39.6910 255.9106 15.08815509  1308","CLASSIFICATION_TYPE":"U","APOAPSIS":"541.093"},{"RA_OF_ASC_NODE":"326.6814","ECCENTRICITY":"0.00014630","BSTAR":"-0.04531400000000","TIME_SYSTEM":"UTC","LAUNCH_DATE":"2022-04-21","DECAY_DATE":null,"MEAN_ANOMALY":"354.0688","PERIOD":"95.269","SITE":"AFETR","NORAD_CAT_ID":"52282","MEAN_ELEMENT_THEORY":"SGP4","ARG_OF_PERICENTER":"53.2804","FILE":"3513976","RCS_SIZE":"LARGE","COUNTRY_CODE":"US","GP_ID":"208137954","MEAN_MOTION_DDOT":"0.0000000000000","SEMIMAJOR_AXIS":"6909.752","MEAN_MOTION_DOT":"-0.00722441","PERIAPSIS":"530.606","OBJECT_NAME":"STARLINK-3783","INCLINATION":"53.2171","TLE_LINE2":"2 52282  53.2171 326.6814 0001463  53.2804 354.0688 15.11503158  1304","CLASSIFICATION_TYPE":"U","ELEMENT_SET_NO":"999","MEAN_MOTION":"15.11503158","REV_AT_EPOCH":"130","APOAPSIS":"532.628","OBJECT_ID":"2022-041X","EPOCH":"2022-07-14T22:00:00.999936","TLE_LINE1":"1 52282U 22041X   22195.91667824 -.00722441  00000-0 -45314-1 0  9990","CENTER_NAME":"EARTH","EPHEMERIS_TYPE":"0","OBJECT_TYPE":"PAYLOAD","REF_FRAME":"TEME"},{"TLE_LINE1":"1 52283U 22041Y   22195.91667824  .00010762  00000-0  69323-3 0  9993","CENTER_NAME":"EARTH","EPHEMERIS_TYPE":"0","OBJECT_TYPE":"PAYLOAD","REF_FRAME":"TEME","OBJECT_ID":"2022-041Y","EPOCH":"2022-07-14T22:00:00.999936","APOAPSIS":"540.884","CLASSIFICATION_TYPE":"U","TLE_LINE2":"2 52283  53.2192 336.6486 0001647  49.5051 291.2485 15.08840317  1304","MEAN_MOTION":"15.08840317","ELEMENT_SET_NO":"999","REV_AT_EPOCH":"130","MEAN_MOTION_DOT":"0.00010762","OBJECT_NAME":"STARLINK-3789","PERIAPSIS":"538.605","INCLINATION":"53.2192","SEMIMAJOR_AXIS":"6917.879","MEAN_MOTION_DDOT":"0.0000000000000","RCS_SIZE":"LARGE","COUNTRY_CODE":"US","GP_ID":"208137650","ARG_OF_PERICENTER":"49.5051","FILE":"3513976","PERIOD":"95.438","SITE":"AFETR","NORAD_CAT_ID":"52283","MEAN_ELEMENT_THEORY":"SGP4","MEAN_ANOMALY":"291.2485","DECAY_DATE":null,"TIME_SYSTEM":"UTC","LAUNCH_DATE":"2022-04-21","BSTAR":"0.00069323000000","ECCENTRICITY":"0.00016470","RA_OF_ASC_NODE":"336.6486"},{"REF_FRAME":"TEME","TLE_LINE1":"1 52284U 22041Z   22195.91667824 -.00721031  00000-0 -44722-1 0  9998","EPHEMERIS_TYPE":"0","CENTER_NAME":"EARTH","OBJECT_TYPE":"PAYLOAD","EPOCH":"2022-07-14T22:00:00.999936","OBJECT_ID":"2022-041Z","APOAPSIS":"531.401","REV_AT_EPOCH":"130","CLASSIFICATION_TYPE":"U","TLE_LINE2":"2 52284  53.2171 326.6857 0001432  58.6865  25.9915 15.11898830  1306","MEAN_MOTION":"15.11898830","ELEMENT_SET_NO":"999","PERIAPSIS":"529.422","INCLINATION":"53.2171","OBJECT_NAME":"STARLINK-3561","MEAN_MOTION_DOT":"-0.00721031","SEMIMAJOR_AXIS":"6908.547","MEAN_MOTION_DDOT":"0.0000000000000","GP_ID":"208137493","RCS_SIZE":"LARGE","COUNTRY_CODE":"US","FILE":"3513976","ARG_OF_PERICENTER":"58.6865","PERIOD":"95.244","NORAD_CAT_ID":"52284","SITE":"AFETR","MEAN_ELEMENT_THEORY":"SGP4","MEAN_ANOMALY":"25.9915","DECAY_DATE":null,"LAUNCH_DATE":"2022-04-21","TIME_SYSTEM":"UTC","BSTAR":"-0.04472200000000","ECCENTRICITY":"0.00014320","RA_OF_ASC_NODE":"326.6857"},{"MEAN_MOTION_DOT":"0.00022540","INCLINATION":"53.2204","PERIAPSIS":"538.636","OBJECT_NAME":"STARLINK-3775","SEMIMAJOR_AXIS":"6917.939","MEAN_MOTION_DDOT":"0.0000000000000","COUNTRY_CODE":"US","RCS_SIZE":"LARGE","GP_ID":"208137752","OBJECT_TYPE":"PAYLOAD","CENTER_NAME":"EARTH","TLE_LINE1":"1 52285U 22041AA  22195.91667824  .00022540  00000-0  14305-2 0  9991","EPHEMERIS_TYPE":"0","REF_FRAME":"TEME","OBJECT_ID":"2022-041AA","EPOCH":"2022-07-14T22:00:00.999936","APOAPSIS":"540.973","ELEMENT_SET_NO":"999","MEAN_MOTION":"15.08820713","CLASSIFICATION_TYPE":"U","TLE_LINE2":"2 52285  53.2204 336.6505 0001689  41.8114 318.9264 15.08820713  1314","REV_AT_EPOCH":"131","TIME_SYSTEM":"UTC","LAUNCH_DATE":"2022-04-21","BSTAR":"0.00143050000000","ECCENTRICITY":"0.00016890","RA_OF_ASC_NODE":"336.6505","ARG_OF_PERICENTER":"41.8114","FILE":"3513976","MEAN_ELEMENT_THEORY":"SGP4","SITE":"AFETR","NORAD_CAT_ID":"52285","PERIOD":"95.439","MEAN_ANOMALY":"318.9264","DECAY_DATE":null},{"DECAY_DATE":null,"MEAN_ANOMALY":"36.4358","NORAD_CAT_ID":"52286","SITE":"AFETR","MEAN_ELEMENT_THEORY":"SGP4","PERIOD":"95.220","ARG_OF_PERICENTER":"85.2011","FILE":"3513976","RA_OF_ASC_NODE":"326.6896","ECCENTRICITY":"0.00013100","BSTAR":"-0.04419000000000","LAUNCH_DATE":"2022-04-21","TIME_SYSTEM":"UTC","REV_AT_EPOCH":"130","MEAN_MOTION":"15.12294964","ELEMENT_SET_NO":"999","TLE_LINE2":"2 52286  53.2171 326.6896 0001310  85.2011  36.4358 15.12294964  1302","CLASSIFICATION_TYPE":"U","APOAPSIS":"530.110","EPOCH":"2022-07-14T22:00:00.999936","OBJECT_ID":"2022-041AB","REF_FRAME":"TEME","OBJECT_TYPE":"PAYLOAD","TLE_LINE1":"1 52286U 22041AB  22195.91667824 -.00720433  00000-0 -44190-1 0  9994","CENTER_NAME":"EARTH","EPHEMERIS_TYPE":"0","GP_ID":"208137591","RCS_SIZE":"LARGE","COUNTRY_CODE":"US","MEAN_MOTION_DDOT":"0.0000000000000","SEMIMAJOR_AXIS":"6907.340","INCLINATION":"53.2171","PERIAPSIS":"528.300","OBJECT_NAME":"STARLINK-3802","MEAN_MOTION_DOT":"-0.00720433"},{"MEAN_MOTION_DOT":"0.00024418","INCLINATION":"53.2215","PERIAPSIS":"538.454","OBJECT_NAME":"STARLINK-3822","SEMIMAJOR_AXIS":"6917.926","MEAN_MOTION_DDOT":"0.0000000000000","COUNTRY_CODE":"US","RCS_SIZE":"LARGE","GP_ID":"208137286","OBJECT_TYPE":"PAYLOAD","TLE_LINE1":"1 52287U 22041AC  22195.91667824  .00024418  00000-0  15476-2 0  9999","EPHEMERIS_TYPE":"0","CENTER_NAME":"EARTH","REF_FRAME":"TEME","OBJECT_ID":"2022-041AC","EPOCH":"2022-07-14T22:00:00.999936","APOAPSIS":"541.127","MEAN_MOTION":"15.08825236","ELEMENT_SET_NO":"999","TLE_LINE2":"2 52287  53.2215 336.6525 0001932  44.6359 356.1416 15.08825236  1300","CLASSIFICATION_TYPE":"U","REV_AT_EPOCH":"130","TIME_SYSTEM":"UTC","LAUNCH_DATE":"2022-04-21","BSTAR":"0.00154760000000","ECCENTRICITY":"0.00019320","RA_OF_ASC_NODE":"336.6525","ARG_OF_PERICENTER":"44.6359","FILE":"3513976","SITE":"AFETR","NORAD_CAT_ID":"52287","MEAN_ELEMENT_THEORY":"SGP4","PERIOD":"95.438","MEAN_ANOMALY":"356.1416","DECAY_DATE":null},{"MEAN_ANOMALY":"63.1771","DECAY_DATE":null,"FILE":"3513976","ARG_OF_PERICENTER":"76.8005","PERIOD":"95.207","NORAD_CAT_ID":"52288","SITE":"AFETR","MEAN_ELEMENT_THEORY":"SGP4","RA_OF_ASC_NODE":"326.6915","ECCENTRICITY":"0.00013510","TIME_SYSTEM":"UTC","LAUNCH_DATE":"2022-04-21","BSTAR":"-0.04395500000000","APOAPSIS":"529.534","TLE_LINE2":"2 52288  53.2172 326.6915 0001351  76.8005  63.1771 15.12493240  1305","CLASSIFICATION_TYPE":"U","ELEMENT_SET_NO":"999","MEAN_MOTION":"15.12493240","REV_AT_EPOCH":"130","TLE_LINE1":"1 52288U 22041AD  22195.91667824 -.00720592  00000-0 -43955-1 0  9990","CENTER_NAME":"EARTH","EPHEMERIS_TYPE":"0","OBJECT_TYPE":"PAYLOAD","REF_FRAME":"TEME","OBJECT_ID":"2022-041AD","EPOCH":"2022-07-14T22:00:00.999936","MEAN_MOTION_DDOT":"0.0000000000000","RCS_SIZE":"LARGE","COUNTRY_CODE":"US","GP_ID":"208137856","MEAN_MOTION_DOT":"-0.00720592","PERIAPSIS":"527.668","INCLINATION":"53.2172","OBJECT_NAME":"STARLINK-3776","SEMIMAJOR_AXIS":"6906.736"},{"FILE":"3513976","ARG_OF_PERICENTER":"48.4335","PERIOD":"95.257","SITE":"AFETR","MEAN_ELEMENT_THEORY":"SGP4","NORAD_CAT_ID":"52289","MEAN_ANOMALY":"17.6264","DECAY_DATE":null,"TIME_SYSTEM":"UTC","LAUNCH_DATE":"2022-04-21","BSTAR":"-0.04501200000000","ECCENTRICITY":"0.00015680","RA_OF_ASC_NODE":"326.6836","EPHEMERIS_TYPE":"0","TLE_LINE1":"1 52289U 22041AE  22195.91667824 -.00721670  00000-0 -45012-1 0  9995","CENTER_NAME":"EARTH","OBJECT_TYPE":"PAYLOAD","REF_FRAME":"TEME","OBJECT_ID":"2022-041AE","EPOCH":"2022-07-14T22:00:00.999936","APOAPSIS":"532.098","CLASSIFICATION_TYPE":"U","TLE_LINE2":"2 52289  53.2171 326.6836 0001568  48.4335  17.6264 15.11700951  1308","MEAN_MOTION":"15.11700951","ELEMENT_SET_NO":"999","REV_AT_EPOCH":"130","MEAN_MOTION_DOT":"-0.00721670","INCLINATION":"53.2171","PERIAPSIS":"529.931","OBJECT_NAME":"STARLINK-3751","SEMIMAJOR_AXIS":"6909.149","MEAN_MOTION_DDOT":"0.0000000000000","RCS_SIZE":"LARGE","COUNTRY_CODE":"US","GP_ID":"208137389"}];
